[{"OBJECT_NAME":"IRIDIUM 33 DEB","OBJECT_ID":"1997-051AAJ","EPOCH":"2026-04-05T19:17:08.334816","MEAN_MOTION":14.59657602,"ECCENTRICITY":0.006021,"INCLINATION":85.9583,"RA_OF_ASC_NODE":119.5505,"ARG_OF_PERICENTER":158.2613,"MEAN_ANOMALY":202.1173,"EPHEMERIS_TYPE":0,"CLASSIFICATION_TYPE":"U","NORAD_CAT_ID":39777,"ELEMENT_SET_NO":999,"REV_AT_EPOCH":61847,"BSTAR":0.0027786,"MEAN_MOTION_DOT":0.00013607,"MEAN_MOTION_DDOT":0},{"OBJECT_NAME":"IRIDIUM 33 DEB","OBJECT_ID":"1997-051AAK","EPOCH":"2026-04-05T16:17:14.707680","MEAN_MOTION":14.55346824,"ECCENTRICITY":0.0008272,"INCLINATION":86.3818,"RA_OF_ASC_NODE":353.7376,"ARG_OF_PERICENTER":18.4259,"MEAN_ANOMALY":341.7247,"EPHEMERIS_TYPE":0,"CLASSIFICATION_TYPE":"U","NORAD_CAT_ID":39778,"ELEMENT_SET_NO":999,"REV_AT_EPOCH":62349,"BSTAR":0.0010684,"MEAN_MOTION_DOT":4.656e-5,"MEAN_MOTION_DDOT":0},{"OBJECT_NAME":"IRIDIUM 33 DEB","OBJECT_ID":"1997-051AAN","EPOCH":"2026-04-05T14:19:21.991584","MEAN_MOTION":14.23665869,"ECCENTRICITY":0.0169611,"INCLINATION":86.3748,"RA_OF_ASC_NODE":210.9938,"ARG_OF_PERICENTER":265.6251,"MEAN_ANOMALY":108.8946,"EPHEMERIS_TYPE":0,"CLASSIFICATION_TYPE":"U","NORAD_CAT_ID":39781,"ELEMENT_SET_NO":999,"REV_AT_EPOCH":9725,"BSTAR":0.0062054,"MEAN_MOTION_DOT":0.00016458,"MEAN_MOTION_DDOT":0},{"OBJECT_NAME":"IRIDIUM 33 DEB","OBJECT_ID":"1997-051ABJ","EPOCH":"2026-04-05T13:15:34.947648","MEAN_MOTION":15.070092,"ECCENTRICITY":0.0006981,"INCLINATION":86.3468,"RA_OF_ASC_NODE":307.7859,"ARG_OF_PERICENTER":9.6119,"MEAN_ANOMALY":19.8531,"EPHEMERIS_TYPE":0,"CLASSIFICATION_TYPE":"U","NORAD_CAT_ID":40996,"ELEMENT_SET_NO":999,"REV_AT_EPOCH":64196,"BSTAR":0.0030159988,"MEAN_MOTION_DOT":0.00045427,"MEAN_MOTION_DDOT":0},{"OBJECT_NAME":"IRIDIUM 33 DEB","OBJECT_ID":"1997-051ABL","EPOCH":"2026-03-20T13:18:48.252960","MEAN_MOTION":14.45504117,"ECCENTRICITY":0.00095854,"INCLINATION":86.388,"RA_OF_ASC_NODE":11.8556,"ARG_OF_PERICENTER":105.6376,"MEAN_ANOMALY":20.7682,"EPHEMERIS_TYPE":0,"CLASSIFICATION_TYPE":"U","NORAD_CAT_ID":40998,"ELEMENT_SET_NO":999,"REV_AT_EPOCH":8094,"BSTAR":0.0004685059,"MEAN_MOTION_DOT":1.671e-5,"MEAN_MOTION_DDOT":0},{"OBJECT_NAME":"IRIDIUM 33 DEB","OBJECT_ID":"1997-051ABN","EPOCH":"2026-04-02T09:41:59.381664","MEAN_MOTION":14.38045517,"ECCENTRICITY":0.01913803,"INCLINATION":86.2821,"RA_OF_ASC_NODE":146.0705,"ARG_OF_PERICENTER":270.4412,"MEAN_ANOMALY":103.8513,"EPHEMERIS_TYPE":0,"CLASSIFICATION_TYPE":"U","NORAD_CAT_ID":46435,"ELEMENT_SET_NO":999,"REV_AT_EPOCH":9504,"BSTAR":0.0054996009,"MEAN_MOTION_DOT":0.00020647,"MEAN_MOTION_DDOT":0},{"OBJECT_NAME":"IRIDIUM 33 DEB","OBJECT_ID":"1997-051ABR","EPOCH":"2026-03-25T09:43:38.646624","MEAN_MOTION":14.42665972,"ECCENTRICITY":0.00403907,"INCLINATION":86.2626,"RA_OF_ASC_NODE":317.7811,"ARG_OF_PERICENTER":356.4504,"MEAN_ANOMALY":184.0485,"EPHEMERIS_TYPE":0,"CLASSIFICATION_TYPE":"U","NORAD_CAT_ID":46734,"ELEMENT_SET_NO":999,"REV_AT_EPOCH":64490,"BSTAR":0.00073413942,"MEAN_MOTION_DOT":2.483e-5,"MEAN_MOTION_DDOT":0},{"OBJECT_NAME":"IRIDIUM 33 DEB","OBJECT_ID":"1997-051ABX","EPOCH":"2026-04-05T18:56:12.763104","MEAN_MOTION":14.61234149,"ECCENTRICITY":0.0017341,"INCLINATION":86.33,"RA_OF_ASC_NODE":290.082,"ARG_OF_PERICENTER":301.7591,"MEAN_ANOMALY":72.6494,"EPHEMERIS_TYPE":0,"CLASSIFICATION_TYPE":"U","NORAD_CAT_ID":46965,"ELEMENT_SET_NO":999,"REV_AT_EPOCH":63933,"BSTAR":0.00078761,"MEAN_MOTION_DOT":3.911e-5,"MEAN_MOTION_DDOT":0},{"OBJECT_NAME":"IRIDIUM 33 DEB","OBJECT_ID":"1997-051ACD","EPOCH":"2026-04-03T06:06:51.068736","MEAN_MOTION":15.06035361,"ECCENTRICITY":0.00054827,"INCLINATION":86.3244,"RA_OF_ASC_NODE":280.2657,"ARG_OF_PERICENTER":258.8751,"MEAN_ANOMALY":226.8335,"EPHEMERIS_TYPE":0,"CLASSIFICATION_TYPE":"U","NORAD_CAT_ID":46971,"ELEMENT_SET_NO":999,"REV_AT_EPOCH":65904,"BSTAR":0.0039691559,"MEAN_MOTION_DOT":0.00058321,"MEAN_MOTION_DDOT":0},{"OBJECT_NAME":"IRIDIUM 33 DEB","OBJECT_ID":"1997-051ACE","EPOCH":"2026-03-21T00:51:06.959808","MEAN_MOTION":14.51201793,"ECCENTRICITY":0.00106128,"INCLINATION":86.3927,"RA_OF_ASC_NODE":357.0817,"ARG_OF_PERICENTER":126.491,"MEAN_ANOMALY":247.8233,"EPHEMERIS_TYPE":0,"CLASSIFICATION_TYPE":"U","NORAD_CAT_ID":46972,"ELEMENT_SET_NO":999,"REV_AT_EPOCH":62998,"BSTAR":0.00045931459,"MEAN_MOTION_DOT":1.845e-5,"MEAN_MOTION_DDOT":0},{"OBJECT_NAME":"IRIDIUM 33 DEB","OBJECT_ID":"1997-051ACG","EPOCH":"2026-04-05T03:40:19.397856","MEAN_MOTION":14.47113592,"ECCENTRICITY":0.00882951,"INCLINATION":86.2989,"RA_OF_ASC_NODE":55.6277,"ARG_OF_PERICENTER":167.5723,"MEAN_ANOMALY":192.7688,"EPHEMERIS_TYPE":0,"CLASSIFICATION_TYPE":"U","NORAD_CAT_ID":46974,"ELEMENT_SET_NO":999,"REV_AT_EPOCH":59147,"BSTAR":0.0029517472,"MEAN_MOTION_DOT":0.00011326,"MEAN_MOTION_DDOT":0}]
